0 CZ-4 DEB
1 35375U 06046H   13281.42629167  .00001576  00000-0  14650-3 0  7469
2 35375 097.7564 259.0570 0038171 112.6477 038.2452 14.95257979376120
0 CZ-4 DEB
1 35375U 06046H   13283.43409274  .00001964  00000-0  18120-3 0  7475
2 35375 097.7568 261.0434 0038274 106.1904 045.8894 14.95269306376427
0 CZ-4 DEB
1 35375U 06046H   13285.44373441  .00001791  00000-0  16562-3 0  7481
2 35375 097.7570 263.0316 0038351 099.7068 063.5166 14.95276997376721
0 CZ-4 DEB
1 35375U 06046H   13287.51060271  .00001692  00000-0  15680-3 0  7496
2 35375 097.7574 265.0765 0038286 093.0337 029.2489 14.95288035377025
0 CZ-4 DEB
1 35375U 06046H   13289.90795698  .00001442  00000-0  13432-3 0  7507
2 35375 097.7579 267.4484 0038086 085.2773 334.0836 14.95303097377387
0 CZ-4 DEB
1 35375U 06046H   13292.18364936  .00001555  00000-0  14451-3 0  7516
2 35375 097.7582 269.6999 0037872 077.9641 344.0881 14.95309461377720
0 CZ-4 DEB
1 35375U 06046H   13294.47030200  .00002230  00000-0  20487-3 0  7522
2 35375 097.7580 271.9628 0037806 070.3193 053.4520 14.95315606378077
